NORAD_CAT_ID,OBJECT_NAME,OBJECT_TYPE,EPOCH,MEAN_MOTION,ECCENTRICITY,INCLINATION,RA_OF_ASC_NODE,ARG_OF_PERICENTER,MEAN_ANOMALY,BSTAR,MEAN_MOTION_DOT,MEAN_MOTION_DDOT,TLE_LINE0,TLE_LINE1,TLE_LINE2,SEMIMAJOR_AXIS,PERIOD,APOGEE,PERIGEE,DECAYED
56451.0,STARLINK-5985,PAYLOAD,2024-04-10 11:01:21,14.98331738,0.0003041,69.9987,105.117,269.755,90.326,-0.00021072,-2.606e-05,0.0,0 STARLINK-5985,1 56451U 23064D   24101.45927420 -.00002606  00000-0 -21072-3 0  9998,2 56451  69.9987 105.1170 0003041 269.7550  90.3260 14.98331738 50651,6950.188,96.107,574.166,569.939,0.0
56451.0,STARLINK-5985,PAYLOAD,2024-04-11 04:38:49,14.98324075,0.0003169,69.9984,103.2645,269.0842,90.9954,1.3134e-05,6.4e-07,0.0,0 STARLINK-5985,1 56451U 23064D   24102.19363367  .00000064  00000-0  13134-4 0  9999,2 56451  69.9984 103.2645 0003169 269.0842  90.9954 14.98324075 51127,6950.211,96.107,574.279,569.874,0.0
56451.0,STARLINK-5985,PAYLOAD,2024-04-11 09:27:14,14.98324095,0.0003125,69.9985,102.7596,268.6106,91.4695,3.481e-05,3.22e-06,0.0,0 STARLINK-5985,1 56451U 23064D   24102.39391387  .00000322  00000-0  34810-4 0  9995,2 56451  69.9985 102.7596 0003125 268.6106  91.4695 14.98324095 50799,6950.211,96.107,574.248,569.904,0.0
56451.0,STARLINK-5985,PAYLOAD,2024-04-11 17:27:54,14.98311962,0.0003135,69.9983,101.9177,267.9047,92.1753,0.00029592,3.438e-05,0.0,0 STARLINK-5985,1 56451U 23064D   24102.72771705  .00003438  00000-0  29592-3 0  9999,2 56451  69.9983 101.9177 0003135 267.9047  92.1753 14.98311962 50848,6950.249,96.108,574.293,569.935,0.0
56451.0,STARLINK-5985,PAYLOAD,2024-04-12 04:40:50,14.9832646,0.0003202,69.9983,100.7393,268.6977,91.3815,8.6664e-05,9.41e-06,0.0,0 STARLINK-5985,1 56451U 23064D   24103.19503307  .00000941  00000-0  86664-4 0  9992,2 56451  69.9983 100.7393 0003202 268.6977  91.3815 14.98326460 51277,6950.204,96.107,574.294,569.843,0.0
56451.0,STARLINK-5985,PAYLOAD,2024-04-12 09:29:14,14.9832823,0.0003194,69.9983,100.2344,268.7781,91.3012,9.422e-05,1.031e-05,0.0,0 STARLINK-5985,1 56451U 23064D   24103.39531208  .00001031  00000-0  94220-4 0  9993,2 56451  69.9983 100.2344 0003194 268.7781  91.3012 14.98328230 50941,6950.198,96.107,574.283,569.843,0.0
56451.0,STARLINK-5985,PAYLOAD,2024-04-13 04:42:51,14.98332352,0.000322,69.9983,98.2144,268.7227,91.3563,5.756e-05,5.94e-06,0.0,0 STARLINK-5985,1 56451U 23064D   24104.19643031  .00000594  00000-0  57560-4 0  9999,2 56451  69.9983  98.2144 0003220 268.7227  91.3563 14.98332352 51425,6950.186,96.107,574.289,569.813,0.0
56451.0,STARLINK-5985,PAYLOAD,2024-04-13 09:31:15,14.9833501,0.0003204,69.9983,97.7095,268.9322,91.147,8.3459e-05,9.03e-06,0.0,0 STARLINK-5985,1 56451U 23064D   24104.39670744  .00000903  00000-0  83459-4 0  9992,2 56451  69.9983  97.7095 0003204 268.9322  91.1470 14.98335010 51096,6950.177,96.107,574.269,569.816,0.0
56451.0,STARLINK-5985,PAYLOAD,2024-04-14 04:44:52,14.98331092,0.0002992,69.9988,95.69,269.1616,90.92,1.6854e-06,-7.3e-07,0.0,0 STARLINK-5985,1 56451U 23064D   24105.19783216 -.00000073  00000-0  16854-5 0  9995,2 56451  69.9988  95.6900 0002992 269.1616  90.9200 14.98331092 51572,6950.19,96.107,574.134,569.975,0.0
56451.0,STARLINK-5985,PAYLOAD,2024-04-14 22:22:21,14.98327913,0.0002499,70.0012,93.8374,253.0383,107.0502,3.0934e-05,2.76e-06,0.0,0 STARLINK-5985,1 56451U 23064D   24105.93219070  .00000276  00000-0  30934-4 0  9997,2 56451  70.0012  93.8374 0002499 253.0383 107.0502 14.98327913 51328,6950.199,96.107,573.801,570.327,0.0
56451.0,STARLINK-5985,PAYLOAD,2024-04-15 04:46:52,14.98386941,0.000182,70.0009,93.1669,245.3907,114.7062,-0.00093699,-0.00011271,0.0,0 STARLINK-5985,1 56451U 23064D   24106.19922186 -.00011271  00000-0 -93699-3 0  9990,2 56451  70.0009  93.1669 0001820 245.3907 114.7062 14.98386941 51723,6950.017,96.103,573.147,570.617,0.0
56451.0,STARLINK-5985,PAYLOAD,2024-04-15 09:35:16,14.98386492,0.0002121,69.9996,92.66,266.8874,93.2043,-0.00091242,-0.00010978,0.0,0 STARLINK-5985,1 56451U 23064D   24106.39949510 -.00010978  00000-0 -91242-3 0  9997,2 56451  69.9996  92.6600 0002121 266.8874  93.2043 14.98386492 51394,6950.018,96.103,573.357,570.409,0.0
56451.0,STARLINK-5985,PAYLOAD,2024-04-16 04:48:54,14.98327587,0.0002563,69.9994,90.6399,250.352,109.7363,1.481e-05,8.4e-07,0.0,0 STARLINK-5985,1 56451U 23064D   24107.20063059  .00000084  00000-0  14810-4 0  9995,2 56451  69.9994  90.6399 0002563 250.3520 109.7363 14.98327587 51872,6950.2,96.107,573.847,570.284,0.0
56451.0,STARLINK-5985,PAYLOAD,2024-04-16 09:37:18,14.98320294,0.0002638,69.9994,90.1347,256.4573,103.6292,0.00020792,2.388e-05,0.0,0 STARLINK-5985,1 56451U 23064D   24107.40091147  .00002388  00000-0  20792-3 0  9990,2 56451  69.9994  90.1347 0002638 256.4573 103.6292 14.98320294 51544,6950.223,96.108,573.921,570.254,0.0
56451.0,STARLINK-5985,PAYLOAD,2024-04-16 16:01:50,14.98330865,0.00029,69.999,89.4616,270.7201,89.3625,6.9802e-05,7.4e-06,0.0,0 STARLINK-5985,1 56451U 23064D   24107.66794779  .00000740  00000-0  69802-4 0  9995,2 56451  69.9990  89.4616 0002900 270.7201  89.3625 14.98330865 51588,6950.19,96.107,574.071,570.04,0.0
56451.0,STARLINK-5985,PAYLOAD,2024-04-17 04:50:55,14.98333795,0.0002863,69.9993,88.115,267.9962,92.0869,4.0526e-05,3.91e-06,0.0,0 STARLINK-5985,1 56451U 23064D   24108.20202552  .00000391  00000-0  40526-4 0  9993,2 56451  69.9993  88.1150 0002863 267.9962  92.0869 14.98333795 52026,6950.181,96.107,574.036,570.056,0.0
56451.0,STARLINK-5985,PAYLOAD,2024-04-17 08:03:10,14.98338631,0.0002823,69.9992,87.7783,268.1172,91.9664,9.3856e-05,1.027e-05,0.0,0 STARLINK-5985,1 56451U 23064D   24108.33554042  .00001027  00000-0  93856-4 0  9992,2 56451  69.9992  87.7783 0002823 268.1172  91.9664 14.98338631 51680,6950.166,96.106,573.993,570.069,0.0
56451.0,STARLINK-5985,PAYLOAD,2024-04-18 04:52:56,14.98322994,0.000289,69.9993,85.5901,270.265,89.8178,-4.3866e-05,-6.16e-06,0.0,0 STARLINK-5985,1 56451U 23064D   24109.20343564 -.00000616  00000-0 -43866-4 0  9995,2 56451  69.9993  85.5901 0002890 270.2650  89.8178 14.98322994 52174,6950.215,96.107,574.088,570.071,0.0
56451.0,STARLINK-5985,PAYLOAD,2024-04-18 08:05:13,14.98321525,0.000293,69.9992,85.2527,271.2469,88.8355,-1.56e-05,-2.79e-06,0.0,0 STARLINK-5985,1 56451U 23064D   24109.33695661 -.00000279  00000-0 -15600-4 0  9997,2 56451  69.9992  85.2527 0002930 271.2469  88.8355 14.98321525 51835,6950.219,96.108,574.121,570.048,0.0
56451.0,STARLINK-5985,PAYLOAD,2024-04-19 04:54:58,14.98321067,0.000273,69.9996,83.0647,262.8724,97.2125,-0.00012051,-1.53e-05,0.0,0 STARLINK-5985,1 56451U 23064D   24110.20484525 -.00001530  00000-0 -12051-3 0  9997,2 56451  69.9996  83.0647 0002730 262.8724  97.2125 14.98321067 52321,6950.221,96.108,573.983,570.188,0.0
56451.0,STARLINK-5985,PAYLOAD,2024-04-19 08:07:14,14.98325306,0.0002656,69.9998,82.7286,262.3794,97.7063,-6.7165e-05,-8.94e-06,0.0,0 STARLINK-5985,1 56451U 23064D   24110.33836180 -.00000894  00000-0 -67165-4 0  9998,2 56451  69.9998  82.7286 0002656 262.3794  97.7063 14.98325306 51984,6950.207,96.107,573.918,570.226,0.0
56451.0,STARLINK-5985,PAYLOAD,2024-04-19 22:32:25,14.9833031,0.0003327,69.998,81.209,278.2477,81.8304,0.00025447,2.945e-05,0.0,0 STARLINK-5985,1 56451U 23064D   24110.93918905  .00002945  00000-0  25447-3 0  9993,2 56451  69.9980  81.2090 0003327 278.2477  81.8304 14.98330310 52076,6950.192,96.107,574.369,569.745,0.0
56451.0,STARLINK-5985,PAYLOAD,2024-04-20 04:56:57,14.98342389,0.0002173,70.0022,80.5429,230.0597,130.0372,0.00035236,4.115e-05,0.0,0 STARLINK-5985,1 56451U 23064D   24111.20621701  .00004115  00000-0  35236-3 0  9997,2 56451  70.0022  80.5429 0002173 230.0597 130.0372 14.98342389 52476,6950.155,96.106,573.53,570.509,0.0
56451.0,STARLINK-5985,PAYLOAD,2024-04-20 08:09:13,14.98344688,0.0002086,70.0024,80.2063,226.4924,133.6062,0.00037451,4.38e-05,0.0,0 STARLINK-5985,1 56451U 23064D   24111.33973457  .00004380  00000-0  37451-3 0  9994,2 56451  70.0024  80.2063 0002086 226.4924 133.6062 14.98344688 52137,6950.147,96.106,573.462,570.563,0.0
56451.0,STARLINK-5985,PAYLOAD,2024-04-20 20:58:19,14.98327542,0.0001197,70.006,78.8692,186.1057,174.0087,0.00021479,2.471e-05,0.0,0 STARLINK-5985,1 56451U 23064D   24111.87383308  .00002471  00000-0  21479-3 0  9995,2 56451  70.0060  78.8692 0001197 186.1057 174.0087 14.98327542 52573,6950.2,96.107,572.897,571.234,0.0
56451.0,STARLINK-5985,PAYLOAD,2024-04-21 04:59:04,14.98269363,0.0001574,70.0012,78.0153,237.9524,122.1482,-0.00045986,-5.566e-05,0.0,0 STARLINK-5985,1 56451U 23064D   24112.20769178 -.00005566  00000-0 -45986-3 0  9995,2 56451  70.0012  78.0153 0001574 237.9524 122.1482 14.98269363 52622,6950.38,96.111,573.339,571.151,0.0
56451.0,STARLINK-5985,PAYLOAD,2024-04-21 08:11:17,14.98317166,0.0001857,70.0017,77.6815,270.5614,89.5332,4.1562e-05,4.03e-06,0.0,0 STARLINK-5985,1 56451U 23064D   24112.34117452  .00000403  00000-0  41562-4 0  9992,2 56451  70.0017  77.6815 0001857 270.5614  89.5332 14.98317166 52281,6950.233,96.108,573.388,570.807,0.0
56451.0,STARLINK-5985,PAYLOAD,2024-04-21 22:36:27,14.98351445,0.0002471,70.0017,76.1681,263.3384,96.7494,-5.9305e-05,-8.01e-06,0.0,0 STARLINK-5985,1 56451U 23064D   24112.94199059 -.00000801  00000-0 -59305-4 0  9999,2 56451  70.0017  76.1681 0002471 263.3384  96.7494 14.98351445 52370,6950.127,96.106,573.709,570.274,0.0
56451.0,STARLINK-5985,PAYLOAD,2024-04-22 05:00:59,14.98360246,0.0001934,70.0017,75.4928,237.0228,123.0746,4.9051e-05,4.93e-06,0.0,0 STARLINK-5985,1 56451U 23064D   24113.20901674  .00000493  00000-0  49051-4 0  9995,2 56451  70.0017  75.4928 0001934 237.0228 123.0746 14.98360246 52771,6950.099,96.105,573.309,570.62,0.0
56451.0,STARLINK-5985,PAYLOAD,2024-04-22 08:13:14,14.98362456,0.0001977,70.0014,75.1552,244.5835,115.5119,7.3244e-05,7.82e-06,0.0,0 STARLINK-5985,1 56451U 23064D   24113.34253291  .00000782  00000-0  73244-4 0  9997,2 56451  70.0014  75.1552 0001977 244.5835 115.5119 14.98362456 52430,6950.093,96.105,573.332,570.583,0.0
